{
    "links": {
        "self": "http://www.neowsapp.com/rest/v1/neo/3799313?api_key=iIulBulltgU6a56xZRHN4H3l9WmuAYTsLGpBGhQ2"
    },
    "id": "3799313",
    "neo_reference_id": "3799313",
    "name": "(2018 CE3)",
    "designation": "2018 CE3",
    "nasa_jpl_url": "http://ssd.jpl.nasa.gov/sbdb.cgi?sstr=3799313",
    "absolute_magnitude_h": 27.5,
    "estimated_diameter": {
        "kilometers": {
            "estimated_diameter_min": 0.008405334,
            "estimated_diameter_max": 0.0187948982
        },
        "meters": {
            "estimated_diameter_min": 8.4053340207,
            "estimated_diameter_max": 18.7948982439
        },
        "miles": {
            "estimated_diameter_min": 0.0052228308,
            "estimated_diameter_max": 0.0116786047
        },
        "feet": {
            "estimated_diameter_min": 27.5765560686,
            "estimated_diameter_max": 61.6630539546
        }
    },
    "is_potentially_hazardous_asteroid": false,
    "close_approach_data": [
        {
            "close_approach_date": "2018-02-12",
            "close_approach_date_full": "2018-Feb-12 00:15",
            "epoch_date_close_approach": 1518394500000,
            "relative_velocity": {
                "kilometers_per_second": "7.2124168564",
                "kilometers_per_hour": "25964.7006830458",
                "miles_per_hour": "16133.4552660848"
            },
            "miss_distance": {
                "astronomical": "0.0273715782",
                "lunar": "10.6475439198",
                "kilometers": "4094729.797258434",
                "miles": "2544347.1130730292"
            },
            "orbiting_body": "Earth"
        }
    ],
    "orbital_data": {
        "orbit_id": "1",
        "orbit_determination_date": "2018-02-12 08:12:04",
        "first_observation_date": "2018-02-10",
        "last_observation_date": "2018-02-12",
        "data_arc_in_days": 2,
        "observations_used": 16,
        "orbit_uncertainty": "8",
        "minimum_orbit_intersection": ".0223164",
        "jupiter_tisserand_invariant": "3.431",
        "epoch_osculation": "2458160.5",
        "eccentricity": ".548081617341497",
        "semi_major_axis": "2.226776572862057",
        "inclination": "1.831480100404882",
        "ascending_node_longitude": "125.9574602367288",
        "orbital_period": "1213.705702008132",
        "perihelion_distance": "1.006321267349665",
        "perihelion_argument": "27.04999989087355",
        "aphelion_distance": "3.447231878374449",
        "perihelion_time": "2458169.380885062286",
        "mean_anomaly": "357.3658205468317",
        "mean_motion": ".2966122672113705",
        "equinox": "J2000",
        "orbit_class": {
            "orbit_class_type": "APO",
            "orbit_class_description": "Near-Earth asteroid orbits which cross the Earth’s orbit similar to that of 1862 Apollo",
            "orbit_class_range": "a (semi-major axis) > 1.0 AU; q (perihelion) < 1.017 AU"
        }
    },
    "is_sentry_object": false
}